[{"OBJECT_NAME":"STARLINK-4500","OBJECT_ID":"2022-097AB","EPOCH":"2026-03-09T12:10:23.670624","MEAN_MOTION":15.08850891,"ECCENTRICITY":0.00013719,"INCLINATION":53.217,"RA_OF_ASC_NODE":114.9413,"ARG_OF_PERICENTER":90.6407,"MEAN_ANOMALY":269.4743,"EPHEMERIS_TYPE":0,"CLASSIFICATION_TYPE":"U","NORAD_CAT_ID":53413,"ELEMENT_SET_NO":999,"REV_AT_EPOCH":19862,"BSTAR":0.00013816098,"MEAN_MOTION_DOT":1.912e-5,"MEAN_MOTION_DDOT":0},{"OBJECT_NAME":"YUNYAO-1 44","OBJECT_ID":"2025-059B","EPOCH":"2026-03-09T23:37:33.233088","MEAN_MOTION":15.10344945,"ECCENTRICITY":0.00180831,"INCLINATION":97.6069,"RA_OF_ASC_NODE":250.8958,"ARG_OF_PERICENTER":135.5449,"MEAN_ANOMALY":224.7236,"EPHEMERIS_TYPE":0,"CLASSIFICATION_TYPE":"U","NORAD_CAT_ID":63345,"ELEMENT_SET_NO":999,"REV_AT_EPOCH":5332,"BSTAR":0.0003556422,"MEAN_MOTION_DOT":5.791e-5,"MEAN_MOTION_DDOT":0}]
